{
  "norad_id": 53419,
  "name": "STARLINK-4476",
  "history": [
    {
      "epoch": "2026-04-11T08:09:55.274112Z",
      "apogee_km": 540.7052892117426,
      "perigee_km": 538.7821183760889,
      "latitude_deg": -1.632884573603868e-05,
      "longitude_deg": 5.504662108764081,
      "height_km": 540.5903954867132,
      "semi_major_axis_km": 6917.880703793916,
      "eccentricity": 0.000139,
      "inclination_deg": 53.2181,
      "raan_deg": 327.5461,
      "arg_perigee_deg": 87.0759,
      "mean_anomaly_deg": 273.0392,
      "mean_motion_rev_day": 15.08839897
    },
    {
      "epoch": "2026-04-12T20:43:47.500608Z",
      "apogee_km": 540.3920200614948,
      "perigee_km": 539.0953325075325,
      "latitude_deg": -3.37708446301128e-05,
      "longitude_deg": 168.69308631432378,
      "height_km": 540.5479933565247,
      "semi_major_axis_km": 6917.880676284513,
      "eccentricity": 9.372e-05,
      "inclination_deg": 53.2176,
      "raan_deg": 320.7038,
      "arg_perigee_deg": 81.8419,
      "mean_anomaly_deg": 278.2679,
      "mean_motion_rev_day": 15.08839906
    },
    {
      "epoch": "2026-04-14T20:25:21.692064Z",
      "apogee_km": 540.6667482613884,
      "perigee_km": 538.8390417511273,
      "latitude_deg": -1.6529742451747543e-05,
      "longitude_deg": 162.42206156821348,
      "height_km": 540.7088439913921,
      "semi_major_axis_km": 6917.889895006258,
      "eccentricity": 0.0001321,
      "inclination_deg": 53.2183,
      "raan_deg": 311.7839,
      "arg_perigee_deg": 93.7701,
      "mean_anomaly_deg": 266.3442,
      "mean_motion_rev_day": 15.0883689
    },
    {
      "epoch": "2026-04-15T20:16:08.903136Z",
      "apogee_km": 540.732970467684,
      "perigee_km": 538.7724405251465,
      "latitude_deg": -3.644818157181704e-05,
      "longitude_deg": 159.2864970738136,
      "height_km": 540.6763849264544,
      "semi_major_axis_km": 6917.889705496415,
      "eccentricity": 0.0001417,
      "inclination_deg": 53.2178,
      "raan_deg": 307.3244,
      "arg_perigee_deg": 91.6371,
      "mean_anomaly_deg": 268.4783,
      "mean_motion_rev_day": 15.08836952
    },
    {
      "epoch": "2026-04-16T20:06:56.166048Z",
      "apogee_km": 540.7311058702089,
      "perigee_km": 538.784410285285,
      "latitude_deg": 5.151316793405287e-05,
      "longitude_deg": 156.14979617800515,
      "height_km": 540.663118966365,
      "semi_major_axis_km": 6917.894758077747,
      "eccentricity": 0.0001407,
      "inclination_deg": 53.2179,
      "raan_deg": 302.8639,
      "arg_perigee_deg": 90.5696,
      "mean_anomaly_deg": 269.5458,
      "mean_motion_rev_day": 15.08835299
    },
    {
      "epoch": "2026-04-17T19:57:43.288992Z",
      "apogee_km": 540.7183205103347,
      "perigee_km": 538.7879524466516,
      "latitude_deg": 3.60198018897018e-06,
      "longitude_deg": 153.01407842933284,
      "height_km": 540.6760989245879,
      "semi_major_axis_km": 6917.890136478492,
      "eccentricity": 0.00013952,
      "inclination_deg": 53.2177,
      "raan_deg": 298.4039,
      "arg_perigee_deg": 91.6193,
      "mean_anomaly_deg": 268.4959,
      "mean_motion_rev_day": 15.08836811
    },
    {
      "epoch": "2026-04-18T05:30:02.137824Z",
      "apogee_km": 540.7159325158536,
      "perigee_km": 538.7862568107294,
      "latitude_deg": 4.0421487168003546e-06,
      "longitude_deg": 7.759607035349701,
      "height_km": 540.657982293764,
      "semi_major_axis_km": 6917.888094663292,
      "eccentricity": 0.00013947,
      "inclination_deg": 53.2179,
      "raan_deg": 296.6197,
      "arg_perigee_deg": 90.6638,
      "mean_anomaly_deg": 269.4514,
      "mean_motion_rev_day": 15.08837479
    },
    {
      "epoch": "2026-04-19T18:03:54.405792Z",
      "apogee_km": 540.7165444800175,
      "perigee_km": 538.7850702042069,
      "latitude_deg": 1.720223288489639e-06,
      "longitude_deg": 170.95026972448844,
      "height_km": 540.6098950591642,
      "semi_major_axis_km": 6917.887807342112,
      "eccentricity": 0.0001396,
      "inclination_deg": 53.2176,
      "raan_deg": 289.7798,
      "arg_perigee_deg": 87.8286,
      "mean_anomaly_deg": 272.2866,
      "mean_motion_rev_day": 15.08837573
    },
    {
      "epoch": "2026-04-20T11:33:08.863776Z",
      "apogee_km": 540.7999433116156,
      "perigee_km": 538.6926177067062,
      "latitude_deg": 4.250102900149404e-05,
      "longitude_deg": -95.34942284922533,
      "height_km": 540.5972468923989,
      "semi_major_axis_km": 6917.883280509161,
      "eccentricity": 0.00015231,
      "inclination_deg": 53.2153,
      "raan_deg": 286.5085,
      "arg_perigee_deg": 87.5912,
      "mean_anomaly_deg": 272.5255,
      "mean_motion_rev_day": 15.08839054
    },
    {
      "epoch": "2026-04-21T17:45:28.269792Z",
      "apogee_km": 540.5189918523392,
      "perigee_km": 538.9887543912046,
      "latitude_deg": -4.2174806820971164e-05,
      "longitude_deg": 164.6783613930425,
      "height_km": 540.7061121680607,
      "semi_major_axis_km": 6917.890873121772,
      "eccentricity": 0.0001106,
      "inclination_deg": 53.2162,
      "raan_deg": 280.8577,
      "arg_perigee_deg": 94.2202,
      "mean_anomaly_deg": 265.8916,
      "mean_motion_rev_day": 15.0883657
    },
    {
      "epoch": "2026-04-21T17:45:28.270656Z",
      "apogee_km": 540.5188534945219,
      "perigee_km": 538.9888927490219,
      "latitude_deg": -4.0332878850078527e-05,
      "longitude_deg": 164.6783591527605,
      "height_km": 540.7061019863447,
      "semi_major_axis_km": 6917.890873121772,
      "eccentricity": 0.00011058,
      "inclination_deg": 53.2162,
      "raan_deg": 280.8577,
      "arg_perigee_deg": 94.2202,
      "mean_anomaly_deg": 265.8916,
      "mean_motion_rev_day": 15.0883657
    },
    {
      "epoch": "2026-04-24T15:42:26.531136Z",
      "apogee_km": 540.675862060667,
      "perigee_km": 538.8094181337683,
      "latitude_deg": -5.294816196295173e-05,
      "longitude_deg": 179.47726771859521,
      "height_km": 540.6637038344162,
      "semi_major_axis_km": 6917.879640097218,
      "eccentricity": 0.0001349,
      "inclination_deg": 53.2168,
      "raan_deg": 267.7721,
      "arg_perigee_deg": 91.5595,
      "mean_anomaly_deg": 268.5551,
      "mean_motion_rev_day": 15.08840245
    },
    {
      "epoch": "2026-04-25T20:19:23.615040Z",
      "apogee_km": 540.7519784810147,
      "perigee_km": 538.78314284305,
      "latitude_deg": 2.4777447603304692e-06,
      "longitude_deg": 103.71334749643343,
      "height_km": 540.7164507897543,
      "semi_major_axis_km": 6917.904560662032,
      "eccentricity": 0.0001423,
      "inclination_deg": 53.2176,
      "raan_deg": 262.4212,
      "arg_perigee_deg": 93.1009,
      "mean_anomaly_deg": 267.0146,
      "mean_motion_rev_day": 15.08832092
    },
    {
      "epoch": "2026-04-26T21:45:35.068896Z",
      "apogee_km": 541.3323109176381,
      "perigee_km": 538.643789160692,
      "latitude_deg": 6.203575477671983e-06,
      "longitude_deg": 76.36268581166009,
      "height_km": 541.4655975215801,
      "semi_major_axis_km": 6918.125050039165,
      "eccentricity": 0.00019431,
      "inclination_deg": 53.2172,
      "raan_deg": 257.6629,
      "arg_perigee_deg": 115.6767,
      "mean_anomaly_deg": 244.4426,
      "mean_motion_rev_day": 15.0875996
    }
  ]
}